STARLINK-4754           
1 53842C 22114AA  26083.14354167 -.00005779  00000+0 -36244-3 0   837
2 53842  53.2149 229.2069 0001347  86.8554 288.3665 15.08835713    19
STARLINK-4769           
1 53843C 22114AB  26083.07618056 -.00031468  00000+0 -19742-2 0   837
2 53843  53.2153 229.6244 0001294  73.7155 235.3888 15.08836308    17
STARLINK-4745           
1 53844C 22114AC  26083.11020833 -.00021117  00000+0 -13241-2 0   831
2 53844  53.2149 229.2782 0001341  84.9138 149.1807 15.08852680    18
STARLINK-4753           
1 53845C 22114AD  26083.16576389  .00008232  00000+0  51638-3 0   833
2 53845  53.2154 229.1627 0001162  84.9969  30.9943 15.08821397    14
STARLINK-4746           
1 53846C 22114AE  26083.06993056 -.00031549  00000+0 -19784-2 0   831
2 53846  53.2144 229.3810 0001383  85.1460 330.1116 15.08853885    18
STARLINK-4777           
1 53847C 22114AF  26083.17409722  .00013584  00000+0  85173-3 0   839
2 53847  53.2147 229.0302 0001285  85.6434 115.6372 15.08836297    10
STARLINK-4780           
1 53848C 22114AG  26083.11229167 -.00019748  00000+0 -12388-2 0   834
2 53848  53.2149 229.1111 0001304  89.7676 235.7855 15.08835803    19
STARLINK-4770           
1 53849C 22114AH  26083.06923611 -.00031303  00000+0 -19631-2 0   833
2 53849  53.2141 229.4233 0001209  71.6971 319.6554 15.08850853    12
STARLINK-4767           
1 53850C 22114AJ  26083.17618056  .00016726  00000+0  10491-2 0   836
2 53850  53.2156 228.7053 0001185  92.0940 280.7751 15.08820945    14
STARLINK-4755           
1 53851C 22114AK  26083.14284722 -.00004436  00000+0 -27813-3 0   837
2 53851  53.2143 229.0139 0001238  88.7490  22.7952 15.08843334    15
STARLINK-4797           
1 53852C 22114AL  26083.14701389  .00003979  00000+0  24986-3 0   838
2 53852  53.2152 224.1512 0001480  94.6756 326.9747 15.08785843    18
STARLINK-4794           
1 53853C 22114AM  26083.11506944 -.00018609  00000+0 -11668-2 0   836
2 53853  53.2150 229.0586 0001302  90.6168 270.0150 15.08852863    12
STARLINK-4800           
1 53854C 22114AN  26083.19076389  .00034976  00000+0  21933-2 0   839
2 53854  53.2148 219.2562 0001261  94.0142  52.6913 15.08819768    17
STARLINK-4703           
1 53855C 22114AP  26083.18451389  .00019163  00000+0  12018-2 0   831
2 53855  53.2148 228.7953 0001254  96.7435 256.1248 15.08825028    11
STARLINK-4795           
1 53856C 22114AQ  26083.17965278  .00031647  00000+0  19841-2 0   830
2 53856  53.2146 219.1544 0001241 102.3718  64.0136 15.08830612    11
STARLINK-4809           
1 53857C 22114AR  26083.11784722 -.00015989  00000+0 -10025-2 0   836
2 53857  53.2156 228.9275 0001269  94.9945 340.8148 15.08851762    17
STARLINK-4798           
1 53858C 22114AS  26083.13034722  .00437360  00000+0  21082-1 0   830
2 53858  53.2182 219.1191 0001051  79.2485 311.3733 15.17988667    18
STARLINK-4790           
1 53859C 22114AT  26083.19562500  .00031696  00000+0  19879-2 0   831
2 53859  53.2145 223.6570 0001005 125.7538 340.2634 15.08816164    17
STARLINK-4799           
1 53860C 22114AU  26083.05604167 -.00026996  00000+0 -16925-2 0   832
2 53860  53.2150 219.7418 0001379  88.8029 105.7582 15.08858277    17
STARLINK-4781           
1 53861C 22114AV  26083.15881944  .00021783  00000+0  13658-2 0   831
2 53861  53.2150 219.3261 0001067  92.4704 280.6177 15.08832370    14
STARLINK-4788           
1 53863C 22114AX  26083.16993056  .00027128  00000+0  17009-2 0   835
2 53863  53.2156 219.1537 0001205  94.4337  39.1629 15.08830370    11
STARLINK-4779           
1 53864C 22114AY  26083.18937500  .00035859  00000+0  22493-2 0   833
2 53864  53.2147 218.5937 0001257  97.2359  22.3821 15.08809930    17
STARLINK-4762           
1 53866C 22114BA  26083.07687500  .00008121  00000+0  50934-3 0   839
2 53866  53.2150 199.7415 0001322 105.0513 172.6031 15.08828729    16
STARLINK-4793           
1 53867C 22114BB  26083.18520833  .00045611  00000+0  28594-2 0   838
2 53867  53.2146 209.1105 0001401  90.3551 121.1883 15.08825191    14
STARLINK-4789           
1 53868C 22114BC  26083.07826389  .00008163  00000+0  51204-3 0   838
2 53868  53.2147 199.4379 0001357  95.8929 349.6090 15.08821654    16
STARLINK-4810           
1 53869C 22114BD  26083.09076389 -.00000814  00000+0 -51067-4 0   833
2 53869  53.2156 209.1401 0001154  91.8435 166.7107 15.08843578    11
STARLINK-4732           
1 53870C 22114BE  26083.18729167  .00055791  00000+0  35001-2 0   834
2 53870  53.2150 198.9722 0001198  91.3773 206.6838 15.08794238    19
STARLINK-4740           
1 53871C 22114BF  26083.18590278  .00050227  00000+0  31486-2 0   836
2 53871  53.2148 198.6648 0001303  93.9515 356.6869 15.08825789    17
STARLINK-5028           
1 53886C 22119A   26083.16923611 -.00029465  00000+0 -18478-2 0   834
2 53886  53.2146 259.3489 0001318  86.6581  42.9853 15.08849966    18
STARLINK-5029           
1 53887C 22119B   26083.08451389 -.00023357  00000+0 -14648-2 0   833
2 53887  53.2147 259.6123 0001395  89.4571 359.8794 15.08847073    14
STARLINK-5034           
1 53888C 22119C   26083.12409722  .00651860  00000+0  24845-1 0   836
2 53888  53.2156 258.7306 0001366  84.5176 223.7848 15.25844067    11
STARLINK-5031           
1 53889C 22119D   26083.15118056 -.00053018  00000+0 -33266-2 0   838
2 53889  53.2146 259.3508 0001289  92.6187 339.0768 15.08843744    12
STARLINK-5050           
1 53890C 22119E   26083.17965278  .00023991  00000+0  15043-2 0   836
2 53890  53.2153 223.8554 0001270 101.9892 337.0840 15.08830024    12
STARLINK-5041           
1 53891C 22119F   26083.15604167 -.00375280  00000+0 -20649-1 0   832
2 53891  53.2182 259.0357 0000930  84.0173 166.8864 15.13743869    12
STARLINK-5046           
1 53892C 22119G   26083.05604167 -.00011080  00000+0 -69469-3 0   832
2 53892  53.2159 259.5054 0001424  81.8143 332.8130 15.08848823    18
STARLINK-5052           
1 53893C 22119H   26083.14631944 -.00030536  00000+0 -19149-2 0   832
2 53893  53.2155 259.2267 0001447  95.4259  24.6236 15.08852569    17
STARLINK-5043           
1 53894C 22119J   26083.18381944 -.00029470  00000+0 -18478-2 0   838
2 53894  53.2153 259.0893 0001491 104.6585 204.4105 15.08856319    13
STARLINK-5032           
1 53895C 22119K   26083.16715278  .00434910  00000+0  20851-1 0   832
2 53895  53.2177 258.7145 0001186  74.9208  15.0748 15.18176549    18
STARLINK-5037           
1 53896C 22119L   26083.11159722 -.00034558  00000+0 -21671-2 0   832
2 53896  53.2159 259.2170 0001298  87.1710 289.5431 15.08854034    19
STARLINK-5035           
1 53897C 22119M   26083.16298611 -.00107020  00000+0 -64181-2 0   837
2 53897  53.2174 259.0993 0000789  84.9261 153.8471 15.10515533    16
STARLINK-5044           
1 53898C 22119N   26083.08243056 -.00025586  00000+0 -16037-2 0   835
2 53898  53.2158 259.2289 0001348  82.5573 195.6165 15.08868153    11
STARLINK-5042           
1 53899C 22119P   26083.15187500  .00115660  00000+0  64171-2 0   838
2 53899  53.2178 258.8541 0001016  76.2712 252.2311 15.13199942    19
STARLINK-5045           
1 53900C 22119Q   26083.06784722 -.00024273  00000+0 -15221-2 0   833
2 53900  53.2152 259.2136 0001355  82.7828 156.2695 15.08850794    16
STARLINK-5024           
1 53901C 22119R   26083.10673611  .00369810  00000+0  84640-3 0   832
2 53901  53.1985 169.2964 0008473   5.9427  46.4225 15.96390979    19
STARLINK-5021           
1 53902C 22119S   26083.15743056  .00039188  00000+0  24583-2 0   830
2 53902  53.2146 208.9273 0001264  86.5474 274.3279 15.08805472    15
STARLINK-5022           
1 53903C 22119T   26083.07409722 -.00017940  00000+0 -11251-2 0   833
2 53903  53.2158 259.3534 0001098  95.1145  92.6111 15.08843839    10
STARLINK-4787           
1 53904C 22119U   26083.08451389 -.00030603  00000+0 -19189-2 0   830
2 53904  53.2149 259.0996 0001328  85.1630 264.4917 15.08855981    18
STARLINK-5003           
1 53905C 22119V   26083.18937500 -.00014864  00000+0 -93244-3 0   832
2 53905  53.2163 249.2485 0001324  86.8401 167.3333 15.08830848    17
STARLINK-5054           
1 53906C 22119W   26083.20604167 -.00000449  00000+0 -28191-4 0   830
2 53906  53.2158 248.6716 0001146 101.2767 143.8556 15.08821342    16
STARLINK-5057           
1 53908C 22119Y   26083.18104167 -.00018543  00000+0 -11628-2 0   833
2 53908  53.2157 249.2060 0001228  82.4050 166.4768 15.08848925    14
STARLINK-4796           
1 53909C 22119Z   26083.08937500 -.00103250  00000+0 -64668-2 0   830
2 53909  53.2159 249.7384 0001256  94.6054 316.0967 15.08933073    14
STARLINK-5048           
1 53911C 22119AB  26083.11715278 -.00034916  00000+0 -21893-2 0   838
2 53911  53.2155 249.5318 0001408  75.8860 165.7761 15.08857951    14
STARLINK-5059           
1 53912C 22119AC  26083.10673611 -.00031597  00000+0 -19813-2 0   833
2 53912  53.2159 249.0412 0001192  88.5039  16.9023 15.08855489    10
STARLINK-5053           
1 53913C 22119AD  26083.13659722 -.00028687  00000+0 -18000-2 0   837
2 53913  53.2147 249.2487 0001282  74.5240  12.9800 15.08830917    19
STARLINK-5040           
1 53914C 22119AE  26083.10951389 -.00036906  00000+0 -23149-2 0   832
2 53914  53.2146 249.3374 0001257  86.2097 234.0245 15.08847247    11
STARLINK-5017           
1 53915C 22119AF  26083.08034722  .00648530  00000+0  29948-1 0   835
2 53915  53.2161 249.2793 0001000  52.4531 206.1394 15.19366922    10
STARLINK-5051           
1 53916C 22119AG  26083.05951389 -.00028917  00000+0 -18137-2 0   832
2 53916  53.2153 229.2644 0001313  83.4565 155.1969 15.08846305    10
STARLINK-5036           
1 53917C 22119AH  26083.11993056 -.00049434  00000+0 -29639-2 0   833
2 53917  53.2168 249.3288 0001354  65.0385 290.1845 15.10495285    18
STARLINK-5012           
1 53918C 22119AJ  26083.11993056 -.00034769  00000+0 -21798-2 0   837
2 53918  53.2146 249.2480 0001302  84.3484 312.4850 15.08864683    18
